     2.100          NAVIGATION                              RINEX VERSION / TYPE
fic2rin                                 03/18/2016 00:06:59 PGM / RUN BY / DATE
                                                            END OF HEADER
26 16  3 17  6  0  0.0 -.295583624393D-03 -.145519152284D-10  .000000000000D+00
     .670000000000D+02  .509687500000D+02  .461162066394D-08  .220462651314D+00
     .271201133728D-05  .946637126617D-03  .525824725628D-05  .515372490311D+04
     .367200000000D+06 -.298023223877D-07 -.301438823273D+01  .000000000000D+00
     .960855850154D+00  .276375000000D+03 -.970812918255D-03 -.828391648694D-08
     .231795369493D-09  .100000000000D+01  .188800000000D+04  .000000000000D+00
     .240000000000D+01  .000000000000D+00  .698491930962D-08  .670000000000D+02
     .360006000000D+06  .400000000000D+01
27 16  3 17  6  0  0.0  .727875158191D-04  .375166564481D-11  .000000000000D+00
     .490000000000D+02 -.602812500000D+02  .455233248006D-08 -.150484553817D+01
    -.327080488205D-05  .338867562823D-02  .474974513054D-05  .515363341713D+04
     .367200000000D+06  .279396772385D-07 -.196509545466D+01 -.819563865662D-07
     .970358806539D+00  .292875000000D+03  .212177972144D+00 -.818462663684D-08
     .103575742917D-10  .100000000000D+01  .188800000000D+04  .000000000000D+00
     .240000000000D+01  .000000000000D+00  .139698386192D-08  .490000000000D+02
     .360006000000D+06  .400000000000D+01
28 16  3 17  6  0  0.0  .509654171765D-03  .272848410532D-11  .000000000000D+00
     .850000000000D+02  .341875000000D+02  .412731477637D-08 -.791370189985D+00
     .203028321266D-05  .198360888753D-01  .566057860851D-05  .515362500763D+04
     .367200000000D+06 -.238418579102D-06 -.293284968185D+01  .167638063431D-06
     .989775214122D+00  .293500000000D+03 -.161898065414D+01 -.830534595100D-08
     .291083553370D-09  .100000000000D+01  .188800000000D+04  .000000000000D+00
     .240000000000D+01  .000000000000D+00 -.107102096081D-07  .850000000000D+02
     .360006000000D+06  .400000000000D+01
29 16  3 17  6  0  0.0  .655938871205D-03  .454747350886D-12  .000000000000D+00
     .470000000000D+02 -.764375000000D+02  .447161483213D-08  .954779132760D+00
    -.392831861973D-05  .107900961302D-02  .547245144844D-05  .515360027313D+04
     .367200000000D+06  .428408384323D-07 -.190593893744D+01  .931322574615D-08
     .976338435912D+00  .285531250000D+03 -.480934217618D+00 -.816462580372D-08
    -.103575742917D-09  .100000000000D+01  .188800000000D+04  .000000000000D+00
     .240000000000D+01  .000000000000D+00 -.102445483208D-07  .470000000000D+02
     .360006000000D+06  .400000000000D+01
30 16  3 17  6  0  0.0  .107532832772D-03  .386535248253D-11  .000000000000D+00
     .960000000000D+02  .504062500000D+02  .452447417680D-08  .202626456096D+01
     .262446701527D-05  .180223397911D-02  .866688787937D-05  .515362948418D+04
     .367200000000D+06 -.353902578354D-07  .229752655103D+01  .372529029846D-08
     .952832454005D+00  .208531250000D+03  .298124468110D+01 -.805354974839D-08
    -.102861427448D-09  .100000000000D+01  .188800000000D+04  .000000000000D+00
     .240000000000D+01  .000000000000D+00  .325962901115D-08  .960000000000D+02
     .360006000000D+06  .400000000000D+01
31 16  3 17  6  0  0.0  .278054270893D-03 -.170530256582D-11  .000000000000D+00
     .690000000000D+02  .510625000000D+02  .397623705481D-08  .181827453852D+01
     .281259417534D-05  .826662150212D-02  .985898077488D-05  .515371656990D+04
     .367200000000D+06 -.111758708954D-07  .226139720701D+01  .100582838058D-06
     .971861738354D+00  .193062500000D+03 -.412493884746D+00 -.772960768347D-08
    -.171792870148D-09  .100000000000D+01  .188800000000D+04  .000000000000D+00
     .240000000000D+01  .000000000000D+00 -.135041773319D-07  .690000000000D+02
     .360006000000D+06  .400000000000D+01
32 16  3 17  6  0  0.0  .984873622656D-05 -.682121026330D-12  .000000000000D+00
     .390000000000D+02 -.231250000000D+01  .469519557374D-08 -.151145206451D+01
    -.229105353355D-06  .413275556639D-04  .734440982342D-05  .515357352448D+04
     .367200000000D+06  .856816768646D-07  .117512445366D+01 -.409781932831D-07
     .959910113115D+00  .241093750000D+03 -.209676106907D+01 -.812748139937D-08
    -.393230665350D-09  .100000000000D+01  .188800000000D+04  .000000000000D+00
     .240000000000D+01  .000000000000D+00  .279396772385D-08  .390000000000D+02
     .360006000000D+06  .400000000000D+01
 1 16  3 17  8  0  0.0  .145966187119D-04  .102318153949D-11  .000000000000D+00
     .320000000000D+02 -.590000000000D+02  .444768526394D-08 -.261901821957D+01
    -.311993062496D-05  .517663161736D-02  .990182161331D-05  .515365229607D+04
     .374400000000D+06 -.111758708954D-07 -.907024493714D+00 -.134110450745D-06
     .963910073466D+00  .190625000000D+03  .454998258561D+00 -.787175646168D-08
     .112504686272D-09  .100000000000D+01  .188800000000D+04  .000000000000D+00
     .240000000000D+01  .000000000000D+00  .512227416039D-08  .320000000000D+02
     .367206000000D+06  .400000000000D+01
 2 16  3 17  8  0  0.0  .599047634751D-03 -.341060513165D-12  .000000000000D+00
     .460000000000D+02 -.550000000000D+02  .489591822036D-08 -.218933702965D+01
    -.282935798168D-05  .155550241470D-01  .938028097153D-05  .515374459457D+04
     .374400000000D+06  .180676579475D-06 -.950998503328D+00 -.521540641785D-07
     .942628610642D+00  .184781250000D+03 -.214662776977D+01 -.797461788913D-08
     .244653047924D-09  .100000000000D+01  .188800000000D+04  .000000000000D+00
     .240000000000D+01  .000000000000D+00 -.204890966415D-07  .460000000000D+02
     .367206000000D+06  .400000000000D+01
 3 16  3 17  8  0  0.0 -.370233319700D-04 -.443378667114D-11  .000000000000D+00
     .330000000000D+02  .216562500000D+02  .470555314803D-08 -.428544166105D+00
     .103376805782D-05  .245198374614D-03  .790879130363D-05  .515374198723D+04
     .374400000000D+06 -.204890966415D-07  .133989158421D+00 -.242143869400D-07
     .959684273674D+00  .223937500000D+03 -.282752841032D+01 -.804962101331D-08
     .202508435289D-09  .100000000000D+01  .188800000000D+04  .000000000000D+00
     .240000000000D+01  .000000000000D+00  .186264514923D-08  .330000000000D+02
     .367206000000D+06  .400000000000D+01
 5 16  3 17  8  0  0.0 -.136930029839D-03  .329691829393D-11  .000000000000D+00
     .820000000000D+02  .145000000000D+02  .511771317330D-08  .293874613263D+00
     .866129994392D-06  .457264913712D-02  .745430588722D-05  .515374699974D+04
     .374400000000D+06  .223517417908D-07  .123040945766D+00  .391155481339D-07
     .946781369861D+00  .224593750000D+03  .470276217189D+00 -.835963392659D-08
     .107861635727D-09  .100000000000D+01  .188800000000D+04  .000000000000D+00
     .240000000000D+01  .000000000000D+00 -.107102096081D-07  .820000000000D+02
     .367206000000D+06  .400000000000D+01
 6 16  3 17  8  0  0.0  .161608215421D-03  .579802872380D-11  .000000000000D+00
     .180000000000D+02 -.488750000000D+02  .452268838813D-08 -.200244304664D+01
    -.249035656452D-05  .379885081202D-03  .984594225883D-05  .515365829849D+04
     .374400000000D+06 -.223517417908D-07 -.915470130446D+00  .000000000000D+00
     .963745884319D+00  .192906250000D+03 -.170935842230D+01 -.795104547867D-08
     .982183769039D-10  .100000000000D+01  .188800000000D+04  .000000000000D+00
     .240000000000D+01  .000000000000D+00  .419095158577D-08  .180000000000D+02
     .367206000000D+06  .400000000000D+01
 7 16  3 17  8  0  0.0  .464856158942D-03 -.181898940355D-11  .000000000000D+00
     .360000000000D+02  .414375000000D+02  .412695761864D-08  .294325784074D+01
     .218860805035D-05  .915356760379D-02  .971741974354D-05  .515366816521D+04
     .374400000000D+06 -.409781932831D-07  .225230673794D+01 -.104308128357D-06
     .967019656525D+00  .195625000000D+03 -.268326260203D+01 -.773960810003D-08
    -.878608026122D-10  .100000000000D+01  .188800000000D+04  .000000000000D+00
     .340000000000D+01  .000000000000D+00 -.111758708954D-07  .360000000000D+02
     .367206000000D+06  .400000000000D+01
 8 16  3 17  8  0  0.0 -.277911312878D-04 -.136424205266D-11  .000000000000D+00
     .570000000000D+02 -.621875000000D+02  .469983862429D-08  .552568207450D+00
    -.329129397869D-05  .183805311099D-02  .460445880890D-05  .515366112328D+04
     .374400000000D+06  .260770320892D-07 -.196728667188D+01 -.428408384323D-07
     .962273730838D+00  .290031250000D+03 -.126963482495D+01 -.833999025121D-08
    -.385730352932D-10  .100000000000D+01  .188800000000D+04  .000000000000D+00
     .240000000000D+01  .000000000000D+00  .465661287308D-08  .570000000000D+02
     .367206000000D+06  .400000000000D+01
 9 16  3 17  8  0  0.0  .914637930691D-04  .750333128963D-11  .000000000000D+00
     .820000000000D+02 -.425000000000D+01  .479662837025D-08 -.608590637740D+00
    -.286847352982D-06  .664415652864D-03  .707618892193D-05  .515361499023D+04
     .374400000000D+06 -.670552253723D-07  .117402145000D+01  .186264514923D-07
     .955294994248D+00  .239812500000D+03  .200006959518D+01 -.817712632442D-08
    -.310727228751D-09  .100000000000D+01  .188800000000D+04  .000000000000D+00
     .240000000000D+01  .000000000000D+00  .139698386192D-08  .820000000000D+02
     .367206000000D+06  .400000000000D+01
10 16  3 17  8  0  0.0  .254409387708D-04 -.852651282912D-11  .000000000000D+00
     .230000000000D+02  .184375000000D+02  .480877173322D-08  .142982178575D+01
     .112317502499D-05  .127238908317D-02  .807829201221D-05  .515368230247D+04
     .374400000000D+06  .540167093277D-07  .129922663092D+00  .298023223877D-07
     .959939377328D+00  .224031250000D+03 -.281899253202D+01 -.814641075928D-08
     .184293390845D-09  .100000000000D+01  .188800000000D+04  .000000000000D+00
     .240000000000D+01  .000000000000D+00  .232830643654D-08  .230000000000D+02
     .367206000000D+06  .400000000000D+01
